start=new Date('2022-03-26T00:00:00.000Z').valueOf();
sats=[{"MEAN_ELEMENT_THEORY":"SGP4","SEMIMAJOR_AXIS":"6817.844","RA_OF_ASC_NODE":"252.4376","APOAPSIS":"440.595","SITE":"AFETR","MEAN_MOTION_DDOT":"0.0000000000000","FILE":"3373822","CENTER_NAME":"EARTH","GP_ID":"199662658","COUNTRY_CODE":"US","LAUNCH_DATE":"2021-03-14","EPOCH":"2022-03-25T11:58:28.510176","MEAN_ANOMALY":"257.9702","TIME_SYSTEM":"UTC","TLE_LINE1":"1 47890U 21021AG  22084.49894109 -.00000094  00000-0  72916-5 0  9998","ECCENTRICITY":"0.00013000","DECAY_DATE":null,"PERIOD":"93.375","TLE_LINE2":"2 47890  53.0542 252.4376 0001300 102.1448 257.9702 15.42169731 57803","PERIAPSIS":"438.823","REV_AT_EPOCH":"5780","NORAD_CAT_ID":"47890","INCLINATION":"53.0542","BSTAR":"0.00000729160000","MEAN_MOTION_DOT":"-0.00000094","OBJECT_NAME":"STARLINK-2350","CLASSIFICATION_TYPE":"U","OBJECT_TYPE":"PAYLOAD","ELEMENT_SET_NO":"999","RCS_SIZE":"LARGE","OBJECT_ID":"2021-021AG","EPHEMERIS_TYPE":"0","REF_FRAME":"TEME","ARG_OF_PERICENTER":"102.1448","MEAN_MOTION":"15.42169731"},{"TLE_LINE1":"1 47891U 21021AH  22084.57393477  .00002406  00000-0  18038-3 0  9991","MEAN_ANOMALY":"286.4142","TIME_SYSTEM":"UTC","PERIOD":"95.592","TLE_LINE2":"2 47891  53.0534 289.0004 0001408  73.7002 286.4142 15.06397815 58405","ECCENTRICITY":"0.00014080","DECAY_DATE":null,"FILE":"3373822","GP_ID":"199663409","LAUNCH_DATE":"2021-03-14","COUNTRY_CODE":"US","EPOCH":"2022-03-25T13:46:27.964128","CENTER_NAME":"EARTH","SITE":"AFETR","APOAPSIS":"548.195","MEAN_MOTION_DDOT":"0.0000000000000","SEMIMAJOR_AXIS":"6925.355","MEAN_ELEMENT_THEORY":"SGP4","RA_OF_ASC_NODE":"289.0004","ARG_OF_PERICENTER":"73.7002","REF_FRAME":"TEME","OBJECT_ID":"2021-021AH","EPHEMERIS_TYPE":"0","MEAN_MOTION":"15.06397815","ELEMENT_SET_NO":"999","RCS_SIZE":"LARGE","CLASSIFICATION_TYPE":"U","MEAN_MOTION_DOT":"0.00002406","OBJECT_NAME":"STARLINK-2351","OBJECT_TYPE":"PAYLOAD","INCLINATION":"53.0534","PERIAPSIS":"546.245","REV_AT_EPOCH":"5840","NORAD_CAT_ID":"47891","BSTAR":"0.00018038000000"},{"INCLINATION":"53.0540","REV_AT_EPOCH":"5783","PERIAPSIS":"514.148","NORAD_CAT_ID":"47892","BSTAR":"0.00001419800000","MEAN_MOTION_DOT":"-0.00000029","OBJECT_NAME":"STARLINK-2352","CLASSIFICATION_TYPE":"U","OBJECT_TYPE":"PAYLOAD","ELEMENT_SET_NO":"999","RCS_SIZE":"LARGE","REF_FRAME":"TEME","ARG_OF_PERICENTER":"63.0096","OBJECT_ID":"2021-021AJ","EPHEMERIS_TYPE":"0","MEAN_MOTION":"15.16904987","SEMIMAJOR_AXIS":"6893.338","MEAN_ELEMENT_THEORY":"SGP4","RA_OF_ASC_NODE":"285.4499","SITE":"AFETR","APOAPSIS":"516.259","MEAN_MOTION_DDOT":"0.0000000000000","FILE":"3373871","GP_ID":"199666920","COUNTRY_CODE":"US","LAUNCH_DATE":"2021-03-14","EPOCH":"2022-03-25T19:51:08.693280","CENTER_NAME":"EARTH","TLE_LINE1":"1 47892U 21021AJ  22084.82718395 -.00000029  00000-0  14198-4 0  9994","MEAN_ANOMALY":"297.1054","TIME_SYSTEM":"UTC","PERIOD":"94.930","TLE_LINE2":"2 47892  53.0540 285.4499 0001531  63.0096 297.1054 15.16904987 57835","DECAY_DATE":null,"ECCENTRICITY":"0.00015310"},{"PERIAPSIS":"546.203","REV_AT_EPOCH":"5793","NORAD_CAT_ID":"47894","INCLINATION":"53.0538","BSTAR":"0.00004614700000","CLASSIFICATION_TYPE":"U","MEAN_MOTION_DOT":"0.00000406","OBJECT_NAME":"STARLINK-2354","OBJECT_TYPE":"PAYLOAD","ELEMENT_SET_NO":"999","RCS_SIZE":"LARGE","OBJECT_ID":"2021-021AL","EPHEMERIS_TYPE":"0","REF_FRAME":"TEME","ARG_OF_PERICENTER":"62.4471","MEAN_MOTION":"15.06396876","MEAN_ELEMENT_THEORY":"SGP4","SEMIMAJOR_AXIS":"6925.358","RA_OF_ASC_NODE":"278.0036","APOAPSIS":"548.243","SITE":"AFETR","MEAN_MOTION_DDOT":"0.0000000000000","FILE":"3373872","CENTER_NAME":"EARTH","GP_ID":"199666462","EPOCH":"2022-03-25T19:06:15.134400","LAUNCH_DATE":"2021-03-14","COUNTRY_CODE":"US","MEAN_ANOMALY":"297.6667","TIME_SYSTEM":"UTC","TLE_LINE1":"1 47894U 21021AL  22084.79600850  .00000406  00000-0  46147-4 0  9995","DECAY_DATE":null,"ECCENTRICITY":"0.00014730","PERIOD":"95.592","TLE_LINE2":"2 47894  53.0538 278.0036 0001473  62.4471 297.6667 15.06396876 57931"},{"RA_OF_ASC_NODE":"277.9619","MEAN_ELEMENT_THEORY":"SGP4","SEMIMAJOR_AXIS":"6925.311","MEAN_MOTION_DDOT":"0.0000000000000","APOAPSIS":"548.231","SITE":"AFETR","EPOCH":"2022-03-25T19:22:09.971040","LAUNCH_DATE":"2021-03-14","COUNTRY_CODE":"US","GP_ID":"199666426","CENTER_NAME":"EARTH","FILE":"3373871","TLE_LINE2":"2 47895  53.0533 277.9619 0001524  70.4382 289.6771 15.06412315 57933","PERIOD":"95.591","DECAY_DATE":null,"ECCENTRICITY":"0.00015240","TLE_LINE1":"1 47895U 21021AM  22084.80705985  .00005261  00000-0  37168-3 0  9999","MEAN_ANOMALY":"289.6771","TIME_SYSTEM":"UTC","BSTAR":"0.00037168000000","INCLINATION":"53.0533","NORAD_CAT_ID":"47895","PERIAPSIS":"546.120","REV_AT_EPOCH":"5793","OBJECT_TYPE":"PAYLOAD","MEAN_MOTION_DOT":"0.00005261","CLASSIFICATION_TYPE":"U","OBJECT_NAME":"STARLINK-2355","RCS_SIZE":"LARGE","ELEMENT_SET_NO":"999","MEAN_MOTION":"15.06412315","REF_FRAME":"TEME","ARG_OF_PERICENTER":"70.4382","OBJECT_ID":"2021-021AM","EPHEMERIS_TYPE":"0"},{"SEMIMAJOR_AXIS":"6925.342","MEAN_ELEMENT_THEORY":"SGP4","RA_OF_ASC_NODE":"292.6921","SITE":"AFETR","APOAPSIS":"548.302","MEAN_MOTION_DDOT":"0.0000000000000","FILE":"3373983","GP_ID":"199668701","COUNTRY_CODE":"US","LAUNCH_DATE":"2021-03-14","EPOCH":"2022-03-25T20:47:45.619008","CENTER_NAME":"EARTH","TLE_LINE1":"1 47896U 21021AN  22084.86650022  .00003090  00000-0  22621-3 0  9993","MEAN_ANOMALY":"298.9580","TIME_SYSTEM":"UTC","PERIOD":"95.592","TLE_LINE2":"2 47896  53.0545 292.6921 0001581  61.1568 298.9580 15.06402052 57739","ECCENTRICITY":"0.00015810","DECAY_DATE":null,"INCLINATION":"53.0545","PERIAPSIS":"546.112","REV_AT_EPOCH":"5773","NORAD_CAT_ID":"47896","BSTAR":"0.00022621000000","OBJECT_NAME":"STARLINK-2356","MEAN_MOTION_DOT":"0.00003090","CLASSIFICATION_TYPE":"U","OBJECT_TYPE":"PAYLOAD","ELEMENT_SET_NO":"999","RCS_SIZE":"LARGE","REF_FRAME":"TEME","ARG_OF_PERICENTER":"61.1568","EPHEMERIS_TYPE":"0","OBJECT_ID":"2021-021AN","MEAN_MOTION":"15.06402052"},{"TLE_LINE1":"1 47897U 21021AP  22084.54072000 -.00000690  00000-0 -27403-4 0  9992","MEAN_ANOMALY":"291.6628","TIME_SYSTEM":"UTC","TLE_LINE2":"2 47897  53.0526 279.1358 0001329  68.4503 291.6628 15.06401440 58387","PERIOD":"95.592","DECAY_DATE":null,"ECCENTRICITY":"0.00013290","FILE":"3373822","LAUNCH_DATE":"2021-03-14","COUNTRY_CODE":"US","EPOCH":"2022-03-25T12:58:38.208000","GP_ID":"199661658","CENTER_NAME":"EARTH","APOAPSIS":"548.130","SITE":"AFETR","MEAN_MOTION_DDOT":"0.0000000000000","SEMIMAJOR_AXIS":"6925.344","MEAN_ELEMENT_THEORY":"SGP4","RA_OF_ASC_NODE":"279.1358","REF_FRAME":"TEME","ARG_OF_PERICENTER":"68.4503","OBJECT_ID":"2021-021AP","EPHEMERIS_TYPE":"0","MEAN_MOTION":"15.06401440","ELEMENT_SET_NO":"999","RCS_SIZE":"LARGE","OBJECT_NAME":"STARLINK-2357","MEAN_MOTION_DOT":"-0.00000690","CLASSIFICATION_TYPE":"U","OBJECT_TYPE":"PAYLOAD","INCLINATION":"53.0526","NORAD_CAT_ID":"47897","PERIAPSIS":"546.289","REV_AT_EPOCH":"5838","BSTAR":"-0.00002740300000"},{"MEAN_ANOMALY":"289.4541","TIME_SYSTEM":"UTC","TLE_LINE1":"1 47898U 21021AQ  22084.53431196  .00001780  00000-0  13838-3 0  9992","DECAY_DATE":null,"ECCENTRICITY":"0.00014440","TLE_LINE2":"2 47898  53.0549 279.1846 0001444  70.6604 289.4541 15.06396804 58320","PERIOD":"95.592","FILE":"3373822","CENTER_NAME":"EARTH","EPOCH":"2022-03-25T12:49:24.553344","LAUNCH_DATE":"2021-03-14","COUNTRY_CODE":"US","GP_ID":"199661908","SITE":"AFETR","APOAPSIS":"548.223","MEAN_MOTION_DDOT":"0.0000000000000","SEMIMAJOR_AXIS":"6925.358","MEAN_ELEMENT_THEORY":"SGP4","RA_OF_ASC_NODE":"279.1846","EPHEMERIS_TYPE":"0","OBJECT_ID":"2021-021AQ","REF_FRAME":"TEME","ARG_OF_PERICENTER":"70.6604","MEAN_MOTION":"15.06396804","ELEMENT_SET_NO":"999","RCS_SIZE":"LARGE","CLASSIFICATION_TYPE":"U","MEAN_MOTION_DOT":"0.00001780","OBJECT_NAME":"STARLINK-2358","OBJECT_TYPE":"PAYLOAD","NORAD_CAT_ID":"47898","REV_AT_EPOCH":"5832","PERIAPSIS":"546.223","INCLINATION":"53.0549","BSTAR":"0.00013838000000"},{"BSTAR":"0.00009718600000","INCLINATION":"53.0524","PERIAPSIS":"546.123","REV_AT_EPOCH":"5852","NORAD_CAT_ID":"47899","OBJECT_TYPE":"PAYLOAD","MEAN_MOTION_DOT":"0.00001166","OBJECT_NAME":"STARLINK-2359","CLASSIFICATION_TYPE":"U","RCS_SIZE":"LARGE","ELEMENT_SET_NO":"999","MEAN_MOTION":"15.06391610","ARG_OF_PERICENTER":"71.4203","REF_FRAME":"TEME","OBJECT_ID":"2021-021AR","EPHEMERIS_TYPE":"0","RA_OF_ASC_NODE":"269.1963","SEMIMAJOR_AXIS":"6925.374","MEAN_ELEMENT_THEORY":"SGP4","MEAN_MOTION_DDOT":"0.0000000000000","APOAPSIS":"548.356","SITE":"AFETR","GP_ID":"199662659","EPOCH":"2022-03-25T12:45:25.539840","LAUNCH_DATE":"2021-03-14","COUNTRY_CODE":"US","CENTER_NAME":"EARTH","FILE":"3373822","PERIOD":"95.593","TLE_LINE2":"2 47899  53.0524 269.1963 0001612  71.4203 288.6960 15.06391610 58522","DECAY_DATE":null,"ECCENTRICITY":"0.00016120","TLE_LINE1":"1 47899U 21021AR  22084.53154560  .00001166  00000-0  97186-4 0  9997","MEAN_ANOMALY":"288.6960","TIME_SYSTEM":"UTC"},{"APOAPSIS":"548.181","SITE":"AFETR","MEAN_MOTION_DDOT":"0.0000000000000","SEMIMAJOR_AXIS":"6925.369","MEAN_ELEMENT_THEORY":"SGP4","RA_OF_ASC_NODE":"279.0862","TLE_LINE1":"1 47900U 21021AS  22084.55547832  .00000330  00000-0  41044-4 0  9994","MEAN_ANOMALY":"289.6723","TIME_SYSTEM":"UTC","TLE_LINE2":"2 47900  53.0552 279.0862 0001368  70.4413 289.6723 15.06393406 58381","PERIOD":"95.593","ECCENTRICITY":"0.00013680","DECAY_DATE":null,"FILE":"3373822","EPOCH":"2022-03-25T13:19:53.326848","LAUNCH_DATE":"2021-03-14","COUNTRY_CODE":"US","GP_ID":"199663410","CENTER_NAME":"EARTH","CLASSIFICATION_TYPE":"U","MEAN_MOTION_DOT":"0.00000330","OBJECT_NAME":"STARLINK-2360","OBJECT_TYPE":"PAYLOAD","INCLINATION":"53.0552","NORAD_CAT_ID":"47900","PERIAPSIS":"546.286","REV_AT_EPOCH":"5838","BSTAR":"0.00004104400000","REF_FRAME":"TEME","ARG_OF_PERICENTER":"70.4413","EPHEMERIS_TYPE":"0","OBJECT_ID":"2021-021AS","MEAN_MOTION":"15.06393406","ELEMENT_SET_NO":"999","RCS_SIZE":"LARGE"}];
